COMMENT,ORIGINATOR,NORAD_CAT_ID,OBJECT_NAME,OBJECT_TYPE,CLASSIFICATION_TYPE,INTLDES,EPOCH,EPOCH_MICROSECONDS,MEAN_MOTION,ECCENTRICITY,INCLINATION,RA_OF_ASC_NODE,ARG_OF_PERICENTER,MEAN_ANOMALY,EPHEMERIS_TYPE,ELEMENT_SET_NO,REV_AT_EPOCH,BSTAR,MEAN_MOTION_DOT,MEAN_MOTION_DDOT,FILE,TLE_LINE0,TLE_LINE1,TLE_LINE2,OBJECT_ID,OBJECT_NUMBER,SEMIMAJOR_AXIS,PERIOD,APOGEE,PERIGEE,DECAYED
GENERATED VIA SPACETRACK.ORG API,18 SPCS,58292,UMBRA-08,PAYLOAD,U,23174AN,2025-10-20 03:26:49,563744,15.52041768,0.0002288,97.3954,9.9115,225.5847,134.5218,0,999,10839,0.0031647,0.00195038,0,4850197,0 UMBRA-08,1 58292U 23174AN  25293.14362921  .00195038  00000-0  31647-2 0  9991,2 58292  97.3954   9.9115 0002288 225.5847 134.5218 15.52041768108397,2023-174AN,58292,6788.903,92.781,412.321,409.214,1
GENERATED VIA SPACETRACK.ORG API,18 SPCS,58292,UMBRA-08,PAYLOAD,U,23174AN,2025-10-20 04:59:40,38720,15.520646755,0.00022751811,97.395309,9.9778828,226.12093,133.98555,0,999,10840,0.0030290093,0.0018662665,0,4850467,0 UMBRA-08,1 58292U 23174AN  25293.20810230  .00186627  00000-0  30290-2 0  9996,2 58292  97.3953   9.9779 0002275 226.1209 133.9856 15.52064676108403,2023-174AN,58292,6788.836,92.780,412.245,409.156,1
GENERATED VIA SPACETRACK.ORG API,18 SPCS,58292,UMBRA-08,PAYLOAD,U,23174AN,2025-10-20 18:55:11,119296,15.522498895,0.00022888285,97.395135,10.575361,229.3098,130.79559,0,999,10849,0.0027271874,0.0016875261,0,4850597,0 UMBRA-08,1 58292U 23174AN  25293.78832314  .00168753  00000-0  27272-2 0  9992,2 58292  97.3951  10.5754 0002289 229.3098 130.7956 15.52249890108496,2023-174AN,58292,6788.296,92.769,411.714,408.607,1
GENERATED VIA SPACETRACK.ORG API,18 SPCS,58292,UMBRA-08,PAYLOAD,U,23174AN,2025-10-21 04:12:08,334144,15.523817206,0.00021406989,97.394929,10.973603,237.05493,123.04976,0,999,10855,0.0026831747,0.0016676859,0,4850699,0 UMBRA-08,1 58292U 23174AN  25294.17509646  .00166769  00000-0  26832-2 0  9991,2 58292  97.3949  10.9736 0002141 237.0549 123.0498 15.52381721108554,2023-174AN,58292,6787.911,92.761,411.229,408.323,1
GENERATED VIA SPACETRACK.ORG API,18 SPCS,58292,UMBRA-08,PAYLOAD,U,23174AN,2025-10-21 18:07:29,132256,15.52565196,0.0002368,97.395,11.5701,236.2896,123.8132,0,999,10864,0.0026649,0.00166721,0,4851244,0 UMBRA-08,1 58292U 23174AN  25294.75519829  .00166721  00000-0  26649-2 0  9993,2 58292  97.3950  11.5701 0002368 236.2896 123.8132 15.52565196108645,2023-174AN,58292,6787.377,92.750,410.849,407.634,1
GENERATED VIA SPACETRACK.ORG API,18 SPCS,58292,UMBRA-08,PAYLOAD,U,23174AN,2025-10-21 18:07:29,132256,15.525651964,0.00023676804,97.395004,11.570147,236.28956,123.81316,0,999,10864,0.0026648616,0.0016672125,0,4851525,0 UMBRA-08,1 58292U 23174AN  25294.75519829  .00166721  00000-0  26649-2 0  9993,2 58292  97.3950  11.5701 0002368 236.2896 123.8132 15.52565196108645,2023-174AN,58292,6787.377,92.750,410.849,407.635,1
GENERATED VIA SPACETRACK.ORG API,18 SPCS,58292,UMBRA-08,PAYLOAD,U,23174AN,2025-10-22 04:57:07,706016,15.5271585,0.000235,97.3948,12.0346,234.431,125.6724,0,999,10871,0.002499,0.00156988,0,4852022,0 UMBRA-08,1 58292U 23174AN  25295.20633919  .00156988  00000-0  24990-2 0  9992,2 58292  97.3948  12.0346 0002350 234.4310 125.6724 15.52715850108714,2023-174AN,58292,6786.938,92.741,410.397,407.208,1
GENERATED VIA SPACETRACK.ORG API,18 SPCS,58292,UMBRA-08,PAYLOAD,U,23174AN,2025-10-22 04:57:07,706880,15.527158503,0.00023498028,97.394782,12.034614,234.43104,125.67235,0,999,10871,0.0024989517,0.0015698797,0,4853183,0 UMBRA-08,1 58292U 23174AN  25295.20633920  .00156988  00000-0  24990-2 0  9994,2 58292  97.3948  12.0346 0002350 234.4310 125.6724 15.52715850108714,2023-174AN,58292,6786.938,92.741,410.397,407.208,1
GENERATED VIA SPACETRACK.ORG API,18 SPCS,58292,UMBRA-08,PAYLOAD,U,23174AN,2025-10-22 11:08:19,604256,15.52791132,0.0002341,97.3946,12.3006,235.0739,125.0294,0,999,10875,0.00251,0.0015813,0,4852841,0 UMBRA-08,1 58292U 23174AN  25295.46411579  .00158130  00000-0  25100-2 0  9991,2 58292  97.3946  12.3006 0002341 235.0739 125.0294 15.52791132108757,2023-174AN,58292,6786.718,92.736,410.172,406.994,1
GENERATED VIA SPACETRACK.ORG API,18 SPCS,58292,UMBRA-08,PAYLOAD,U,23174AN,2025-10-22 15:46:42,846240,15.52844914,0.0002358,97.3945,12.4997,236.2602,123.8427,0,999,10878,0.0023546,0.00148439,0,4853529,0 UMBRA-08,1 58292U 23174AN  25295.65744035  .00148439  00000-0  23546-2 0  9991,2 58292  97.3945  12.4997 0002358 236.2602 123.8427 15.52844914108780,2023-174AN,58292,6786.561,92.733,410.027,406.826,1
GENERATED VIA SPACETRACK.ORG API,18 SPCS,58292,UMBRA-08,PAYLOAD,U,23174AN,2025-10-22 15:46:42,846240,15.528449139,0.00023582869,97.394528,12.499706,236.26016,123.84267,0,999,10878,0.0023545832,0.0014843881,0,4853664,0 UMBRA-08,1 58292U 23174AN  25295.65744035  .00148439  00000-0  23546-2 0  9991,2 58292  97.3945  12.4997 0002358 236.2602 123.8427 15.52844914108780,2023-174AN,58292,6786.561,92.733,410.027,406.826,1
GENERATED VIA SPACETRACK.ORG API,18 SPCS,58292,UMBRA-08,PAYLOAD,U,23174AN,2025-10-23 04:09:01,363680,15.530222203,0.00024314512,97.394053,13.030145,235.6933,124.40899,0,999,10886,0.00263114,0.0016734415,0,4854367,0 UMBRA-08,1 58292U 23174AN  25296.17293245  .00167344  00000-0  26311-2 0  9990,2 58292  97.3941  13.0301 0002431 235.6933 124.4090 15.53022220108865,2023-174AN,58292,6786.045,92.722,409.560,406.260,1
GENERATED VIA SPACETRACK.ORG API,18 SPCS,58292,UMBRA-08,PAYLOAD,U,23174AN,2025-10-23 16:31:15,273408,15.53174604,0.0002335,97.3938,13.5617,237.0048,123.0981,0,999,10894,0.0023936,0.00152781,0,4854935,0 UMBRA-08,1 58292U 23174AN  25296.68837122  .00152781  00000-0  23936-2 0  9993,2 58292  97.3938  13.5617 0002335 237.0048 123.0981 15.53174604108949,2023-174AN,58292,6785.601,92.713,409.050,405.882,1
GENERATED VIA SPACETRACK.ORG API,18 SPCS,58292,UMBRA-08,PAYLOAD,U,23174AN,2025-10-23 16:31:15,273408,15.531746043,0.00023354156,97.393768,13.561661,237.00482,123.09806,0,999,10894,0.0023935854,0.001527807,0,4855258,0 UMBRA-08,1 58292U 23174AN  25296.68837122  .00152781  00000-0  23936-2 0  9993,2 58292  97.3938  13.5617 0002335 237.0048 123.0981 15.53174604108949,2023-174AN,58292,6785.601,92.713,409.051,405.881,1
GENERATED VIA SPACETRACK.ORG API,18 SPCS,58292,UMBRA-08,PAYLOAD,U,23174AN,2025-10-24 04:53:24,211680,15.533600992,0.00023995348,97.393902,14.092344,236.09375,124.00876,0,999,10902,0.0027070731,0.001744374,0,4855292,0 UMBRA-08,1 58292U 23174AN  25297.20375245  .00174437  00000-0  27071-2 0  9991,2 58292  97.3939  14.0923 0002400 236.0938 124.0088 15.53360099109020,2023-174AN,58292,6785.061,92.702,408.554,405.298,1
GENERATED VIA SPACETRACK.ORG API,18 SPCS,58292,UMBRA-08,PAYLOAD,U,23174AN,2025-10-24 17:15:28,384128,15.53520241,0.0002396,97.3934,14.6238,237.9408,122.1613,0,999,10910,0.0025506,0.00165105,0,4855977,0 UMBRA-08,1 58292U 23174AN  25297.71907852  .00165105  00000-0  25506-2 0  9995,2 58292  97.3934  14.6238 0002396 237.9408 122.1613 15.53520241109105,2023-174AN,58292,6784.595,92.693,408.085,404.834,1
GENERATED VIA SPACETRACK.ORG API,18 SPCS,58292,UMBRA-08,PAYLOAD,U,23174AN,2025-10-24 18:48:13,552416,15.53542972,0.0002408,97.3936,14.6903,238.6068,121.495,0,999,10911,0.0025941,0.00168125,0,4856564,0 UMBRA-08,1 58292U 23174AN  25297.78349019  .00168125  00000-0  25941-2 0  9995,2 58292  97.3936  14.6903 0002408 238.6068 121.4950 15.53542972109112,2023-174AN,58292,6784.528,92.691,408.027,404.760,1
GENERATED VIA SPACETRACK.ORG API,18 SPCS,58292,UMBRA-08,PAYLOAD,U,23174AN,2025-10-24 18:48:13,517856,15.535436671,0.00024032582,97.393401,14.690151,238.13419,121.96776,0,999,10911,0.0025274976,0.0016371892,0,4856585,0 UMBRA-08,1 58292U 23174AN  25297.78348979  .00163719  00000-0  25275-2 0  9993,2 58292  97.3934  14.6902 0002403 238.1342 121.9678 15.53543667109118,2023-174AN,58292,6784.526,92.691,408.022,404.761,1
GENERATED VIA SPACETRACK.ORG API,18 SPCS,58292,UMBRA-08,PAYLOAD,U,23174AN,2025-10-25 04:04:42,941280,15.53677852,0.0002425,97.3931,15.0883,235.8474,124.2549,0,999,10917,0.0026361,0.00171759,0,4857096,0 UMBRA-08,1 58292U 23174AN  25298.16994145  .00171759  00000-0  26361-2 0  9998,2 58292  97.3931  15.0883 0002425 235.8474 124.2549 15.53677852109175,2023-174AN,58292,6784.136,92.683,407.646,404.356,1
GENERATED VIA SPACETRACK.ORG API,18 SPCS,58292,UMBRA-08,PAYLOAD,U,23174AN,2025-10-25 04:04:42,941280,15.536778519,0.00024249754,97.393149,15.088258,235.84742,124.25493,0,999,10917,0.0026360742,0.0017175918,0,4857389,0 UMBRA-08,1 58292U 23174AN  25298.16994145  .00171759  00000-0  26361-2 0  9998,2 58292  97.3931  15.0883 0002425 235.8474 124.2549 15.53677852109175,2023-174AN,58292,6784.136,92.683,407.646,404.356,1
GENERATED VIA SPACETRACK.ORG API,18 SPCS,58292,UMBRA-08,PAYLOAD,U,23174AN,2025-10-25 11:48:25,445088,15.53777002,0.0002345,97.3932,15.421,242.2125,117.8891,0,999,10922,0.0026702,0.00174672,0,4857911,0 UMBRA-08,1 58292U 23174AN  25298.49196117  .00174672  00000-0  26702-2 0  9993,2 58292  97.3932  15.4210 0002345 242.2125 117.8891 15.53777002109222,2023-174AN,58292,6783.847,92.677,407.303,404.121,1
GENERATED VIA SPACETRACK.ORG API,18 SPCS,58292,UMBRA-08,PAYLOAD,U,23174AN,2025-10-25 17:59:22,144704,15.53858915,0.0002407,97.3933,15.6867,243.6383,116.4624,0,999,10926,0.0026315,0.00172605,0,4858734,0 UMBRA-08,1 58292U 23174AN  25298.74956186  .00172605  00000-0  26315-2 0  9995,2 58292  97.3933  15.6867 0002407 243.6383 116.4624 15.53858915109269,2023-174AN,58292,6783.609,92.673,407.106,403.841,1
GENERATED VIA SPACETRACK.ORG API,18 SPCS,58292,UMBRA-08,PAYLOAD,U,23174AN,2025-10-25 22:37:33,800448,15.539182679,0.00024011422,97.393153,15.885569,241.59597,118.50519,0,999,10929,0.0024040513,0.0015771973,0,4859004,0 UMBRA-08,1 58292U 23174AN  25298.94275232  .00157720  00000-0  24041-2 0  9998,2 58292  97.3932  15.8856 0002401 241.5960 118.5052 15.53918268109299,2023-174AN,58292,6783.436,92.669,406.930,403.672,1
